[{"OBJECT_NAME":"STARLINK-34030","OBJECT_ID":"2025-102J","EPOCH":"2026-03-09T12:34:44.374944","MEAN_MOTION":14.98340563,"ECCENTRICITY":0.00027985,"INCLINATION":70.0016,"RA_OF_ASC_NODE":115.0253,"ARG_OF_PERICENTER":258.7362,"MEAN_ANOMALY":101.3483,"EPHEMERIS_TYPE":0,"CLASSIFICATION_TYPE":"U","NORAD_CAT_ID":64030,"ELEMENT_SET_NO":999,"REV_AT_EPOCH":4593,"BSTAR":0.00033280714,"MEAN_MOTION_DOT":3.881e-5,"MEAN_MOTION_DDOT":0},{"OBJECT_NAME":"COSMOS 397 DEB","OBJECT_ID":"1971-015K","EPOCH":"2026-03-09T22:19:18.882624","MEAN_MOTION":13.64687983,"ECCENTRICITY":0.06428394,"INCLINATION":65.8167,"RA_OF_ASC_NODE":317.2661,"ARG_OF_PERICENTER":130.2225,"MEAN_ANOMALY":235.6932,"EPHEMERIS_TYPE":0,"CLASSIFICATION_TYPE":"U","NORAD_CAT_ID":5016,"ELEMENT_SET_NO":999,"REV_AT_EPOCH":63965,"BSTAR":0.0010600435,"MEAN_MOTION_DOT":3.54e-5,"MEAN_MOTION_DDOT":0}]
